INTELSAT 902 (IS-902)   
1 26900U 01039A   26146.20530772 -.00000282  00000+0  00000+0 0  9996
2 26900   6.0635  72.0473 0004142 351.2594 204.2739  1.00269136 90477
INTELSAT 904 (IS-904)   
1 27380U 02007A   26146.42270310 -.00000223  00000+0  00000+0 0  9993
2 27380   6.8682  69.4437 0007332 351.6747 303.5605  1.00272811 51542
DIRECTV 5 (TEMPO 1)     
1 27426U 02023A   26146.41744403 -.00000055  00000+0  00000+0 0  9993
2 27426   4.8246  75.5772 0003407 349.1410 219.4459  1.00272315 87905
INTELSAT 905 (IS-905)   
1 27438U 02027A   26146.50316845  .00000096  00000+0  00000+0 0  9999
2 27438   6.7017  70.0595 0004129   1.5071 216.4396  1.00270951 51140
GALAXY 3C (G-3C)        
1 27445U 02030A   26146.42047737 -.00000150  00000+0  00000+0 0  9995
2 27445   3.6763  78.2661 0001821  25.8149 196.4242  1.00271602 46276
INTELSAT 906 (IS-906)   
1 27513U 02041A   26146.38070815  .00000015  00000+0  00000+0 0  9990
2 27513   5.7485  73.1849 0004613 348.5314  23.4359  1.00271763 86819
GALAXY 13 (HORIZONS-1)  
1 27954U 03044A   26146.52067925  .00000136  00000+0  00000+0 0  9991
2 27954   1.3638  84.1134 0002137 339.4129 218.0215  1.00273547 46351
INTELSAT 10-02          
1 28358U 04022A   26146.58171825 -.00000009  00000+0  00000+0 0  9998
2 28358   0.0318  52.5475 0000142 320.2749  79.7591  1.00267527 80345
DIRECTV 8               
1 28659U 05019A   26146.55831814  .00000004  00000+0  00000+0 0  9991
2 28659   0.0149 345.7179 0003188  85.8518 254.5043  1.00272436 76851
GALAXY 28 (G-28)        
1 28702U 05022A   26146.36259472 -.00000196  00000+0  00000+0 0  9990
2 28702   3.2448  79.1938 0003424 349.9331 278.2367  1.00284537 51757
GALAXY 16 (G-16)        
1 29236U 06023A   26146.56230483  .00000000  00000+0  00000+0 0  9991
2 29236   0.0156  86.4939 0003259 344.3413 276.7201  1.00264993 72756
DIRECTV 9S              
1 29494U 06043A   26146.56187149 -.00000110  00000+0  00000+0 0  9992
2 29494   2.3672  81.1544 0004934 355.8153 268.2400  1.00271668 51169
GALAXY 17 (G-17)        
1 31307U 07016B   26146.56507817 -.00000203  00000+0  00000+0 0  9990
2 31307   2.9198  80.1647 0004621   2.6493 279.7491  1.00272537 69582
INTELSAT 11 (IS-11)     
1 32253U 07044B   26146.50539395  .00000061  00000+0  00000+0 0  9993
2 32253   3.5111  78.9242 0000873  76.9110 131.2320  0.99049570 68236
HORIZONS-2              
1 32388U 07063B   26146.56724485 -.00000250  00000+0  00000+0 0  9996
2 32388   2.5485  80.8837 0003991 345.2773 308.4074  1.00272263 67593
DIRECTV 11              
1 32729U 08013A   26146.56221816 -.00000123  00000+0  00000+0 0  9990
2 32729   0.0047 118.8586 0000469 263.4685 325.0142  1.00272675 45372
GALAXY 18 (G-18)        
1 32951U 08024A   26146.55753814  .00000028  00000+0  00000+0 0  9999
2 32951   0.0300 111.0028 0003087 318.1838 252.6500  1.00273431 45637
INTELSAT 25 (IS-25)     
1 33153U 08034A   26146.50890565  .00000052  00000+0  00000+0 0  9992
2 33153   2.6546  80.5636 0001622  13.9921 191.2290  0.99032482 65477
GALAXY 19 (G-19)        
1 33376U 08045A   26146.56265149 -.00000136  00000+0  00000+0 0  9995
2 33376   0.0318  90.4446 0003135 344.6035 274.6461  1.00271345 64687
FM-5                    
1 35493U 09034A   26146.56481817 -.00000197  00000+0  00000+0 0  9995
2 35493   0.0131 289.0941 0000564   7.7880  64.4417  1.00272082 46423
INTELSAT 14 (IS-14)     
1 36097U 09064A   26146.35912804 -.00000271  00000+0  00000+0 0  9994
2 36097   0.0157 318.8210 0002511 112.5405 256.8618  1.00271864 60382
INTELSAT 15 (IS-15)     
1 36106U 09067A   26146.55669784 -.00000182  00000+0  00000+0 0  9997
2 36106   0.0123 293.4738 0002324 128.9114 107.2989  1.00271513 41019
DIRECTV 12              
1 36131U 09075A   26146.41891736  .00000000  00000+0  00000+0 0  9991
2 36131   0.0117  89.0336 0000323 295.7050 267.3301  1.00269396 46334
INTELSAT 16 (IS-16)     
1 36397U 10006A   26146.42420406 -.00000242  00000+0  00000+0 0  9993
2 36397   0.0121 303.4250 0002813 155.9195 221.1658  1.00270607 59439
XM-5                    
1 37185U 10053A   26146.41649068 -.00000021  00000+0  00000+0 0  9992
2 37185   0.0624 273.8831 0003277 279.3748  85.4756  1.00271873 57263
INTELSAT 17 (IS-17)     
1 37238U 10065B   26146.59497831  .00000001  00000+0  00000+0 0  9999
2 37238   0.0055 310.9927 0002436 114.6815  98.6983  1.00272916 53039
INTELSAT 28 (IS-28)     
1 37392U 11016A   26146.41032244 -.00000222  00000+0  00000+0 0  9997
2 37392   1.7520  82.8773 0003826 341.2185 295.8931  1.00272595 53061
INTELSAT 18 (IS-18)     
1 37834U 11056A   26146.52892207  .00000000  00000+0  00000+0 0  9990
2 37834   0.0175 331.4738 0002122 101.4991 181.5362  1.00271055 53590
INTELSAT 22 (IS-22)     
1 38098U 12011A   26146.59610498 -.00000055  00000+0  00000+0 0  9993
2 38098   0.0147 310.0061 0002116 110.6474 110.2081  1.00271594  6970
INTELSAT 19 (IS-19)     
1 38356U 12030A   26146.53447407 -.00000053  00000+0  00000+0 0  9991
2 38356   0.0120 304.5305 0003125 124.1814 173.8117  1.00272580 50235
INTELSAT 20 (IS-20)     
1 38740U 12043A   26146.59541164 -.00000021  00000+0  00000+0 0  9998
2 38740   0.0063 140.5877 0001610  40.2502 346.1819  1.00271866 50532
INTELSAT 21 (IS-21)     
1 38749U 12045A   26146.42784407 -.00000282  00000+0  00000+0 0  9999
2 38749   0.0165 343.4503 0001945  88.2648 268.3102  1.00271413 50301
INTELSAT 23 (IS-23)     
1 38867U 12057A   26146.42879742 -.00000282  00000+0  00000+0 0  9990
2 38867   0.0174 291.9210 0000710 219.2516 194.2121  1.00282544 49733
FM-6                    
1 39360U 13058A   26146.55883815 -.00000012  00000+0  00000+0 0  9992
2 39360   0.0044 349.1977 0001875 151.4328 188.3177  1.00270235 45853
INTELSAT 30 (IS-30)     
1 40271U 14062A   26146.56308483 -.00000148  00000+0  00000+0 0  9995
2 40271   0.0287  48.4169 0000954 345.6572 317.7206  1.00271562  6573
DIRECTV 14              
1 40333U 14078B   26146.56221816 -.00000123  00000+0  00000+0 0  9998
2 40333   0.0100 336.1292 0000165 215.1905 155.9751  1.00272488 41827
DIRECTV 15              
1 40663U 15026A   26146.56152483  .00000000  00000+0  00000+0 0  9994
2 40663   0.0182 328.0907 0000314  84.8306 290.4848  1.00271868 40246
SKY MEXICO-1            
1 40664U 15026B   26146.56620485 -.00000231  00000+0  00000+0 0  9994
2 40664   0.0132 287.0213 0002105 153.2666 288.8763  1.00270772 40235
INTELSAT 34 (IS-34)     
1 40874U 15039A   26146.42827741 -.00000283  00000+0  00000+0 0  9997
2 40874   0.0107 312.9396 0000467  31.4609 358.2943  1.00271271 39418
INTELSAT 31 (IS-31)     
1 41581U 16035A   26146.42047737 -.00000148  00000+0  00000+0 0  9999
2 41581   0.0138 259.0525 0001172  16.7691  24.4979  1.00272474 36463
INTELSAT 36 (IS-36)     
1 41747U 16053A   26146.59549831 -.00000021  00000+0  00000+0 0  9993
2 41747   0.0129 350.9672 0001721 345.2707 190.8213  1.00270957 35742
INTELSAT 32E (IS-32E)   
1 41945U 17007B   26146.43070409 -.00000267  00000+0  00000+0 0  9998
2 41945   0.0183 335.4131 0000254 341.8029  38.6652  1.00270092 34003
INTELSAT 35E (IS-35E)   
1 42818U 17041A   26146.40895444  .00000000  00000+0  00000+0 0  9991
2 42818   0.0179 327.0584 0002305  95.6076 294.0551  1.00269915 32592
INTELSAT 37E (IS-37E)   
1 42950U 17059A   26146.43573079  .00000000  00000+0  00000+0 0  9997
2 42950   0.0191 318.9846 0002550 119.4429 304.4515  1.00269470 31841
AZERSPACE 2 (IS-38)     
1 43632U 18074A   26146.59081829  .00000140  00000+0  00000+0 0  9992
2 43632   0.0180 301.5844 0001460 120.9127  79.4654  1.00271864 28236
HORIZONS-3E             
1 43633U 18074B   26146.25884957 -.00000029  00000+0  00000+0 0  9996
2 43633   0.0077  65.6527 0000649 223.3696 216.9818  1.00271176 28129
AT&T T-16               
1 44333U 19034A   26146.56187149 -.00000112  00000+0  00000+0 0  9997
2 44333   0.0295 111.7235 0000562 128.5879 105.2340  1.00269364 25416
INTELSAT 39 (IS-39)     
1 44476U 19049B   26146.60660668  .00000036  00000+0  00000+0 0  9992
2 44476   0.0196 303.9918 0000622  10.2750 210.2416  1.00272254 24916
GALAXY 30 (G-30)        
1 46114U 20056C   26145.98676844  .00000037  00000+0  00000+0 0  9997
2 46114   0.0159 341.2543 0002282  82.7861  49.7809  1.00273704 21072
GALAXY 33 (G-33)        
1 54026U 22128A   26146.55554479  .00000082  00000+0  00000+0 0  9993
2 54026   0.0100 302.5034 0001937 126.7120 241.9158  1.00273610 13527
GALAXY 34 (G-34)        
1 54027U 22128B   26145.70079742  .00000000  00000+0  00000+0 0  9995
2 54027   0.0204 301.8652 0001943 131.2021 293.5128  1.00274589 13682
GALAXY 31 (G-31)        
1 54243U 22153A   26145.98754844  .00000014  00000+0  00000+0 0  9991
2 54243   0.0445 116.0928 0001402 304.9283  57.0619  1.00272218  6913
GALAXY 32 (G-32)        
1 54244U 22153B   26145.99352846 -.00000173  00000+0  00000+0 0  9996
2 54244   0.0094 328.7334 0002526  60.5940 120.9187  1.00271506 12927
GALAXY 35 (G-35)        
1 54741U 22170A   26146.34959466 -.00000160  00000+0  00000+0 0  9994
2 54741   0.0372 115.6784 0002126 310.0009 210.9924  1.00271730 12675
GALAXY 36 (G-36)        
1 54742U 22170B   26146.56421150 -.00000182  00000+0  00000+0 0  9997
2 54742   0.0046 194.4704 0002808 238.9254 284.8532  1.00271818 12557
GALAXY 37 (G-37)        
1 57493U 23112A   26146.55675814  .00000051  00000+0  00000+0 0  9991
2 57493   0.0178 337.0904 0002062  81.4928 258.9809  1.00272292 10326
